[{"OBJECT_NAME":"TIANQI-35","OBJECT_ID":"2024-245C","EPOCH":"2026-03-09T22:48:29.661984","MEAN_MOTION":13.99155463,"ECCENTRICITY":0.00115717,"INCLINATION":44.9856,"RA_OF_ASC_NODE":43.2512,"ARG_OF_PERICENTER":259.4757,"MEAN_ANOMALY":100.4772,"EPHEMERIS_TYPE":0,"CLASSIFICATION_TYPE":"U","NORAD_CAT_ID":62367,"ELEMENT_SET_NO":999,"REV_AT_EPOCH":6244,"BSTAR":0.00014384767,"MEAN_MOTION_DOT":8.1e-7,"MEAN_MOTION_DDOT":0},{"OBJECT_NAME":"COSMOS 970 DEB","OBJECT_ID":"1977-121AM","EPOCH":"2026-03-09T13:44:03.325344","MEAN_MOTION":13.71349663,"ECCENTRICITY":0.0128167,"INCLINATION":65.7761,"RA_OF_ASC_NODE":124.9694,"ARG_OF_PERICENTER":32.3607,"MEAN_ANOMALY":82.7067,"EPHEMERIS_TYPE":0,"CLASSIFICATION_TYPE":"U","NORAD_CAT_ID":10890,"ELEMENT_SET_NO":999,"REV_AT_EPOCH":40585,"BSTAR":0.00033890771,"MEAN_MOTION_DOT":2.43e-6,"MEAN_MOTION_DDOT":0}]
